[Satellite]
VERSION=1.1
NAME=IRIDIUM 40 [+]
NICKNAME=IRIDIUM 40 [+]
TLE1=1 25041U 97069C   15055.42499796  .00000424  00000-0  14428-3 0  9991
TLE2=2 25041  86.3992  14.5455 0002228 102.3908 257.7537 14.34218131905392
